start=new Date('2021-10-08T00:00:00.000Z').valueOf();
sats=[{"OBJECT_ID":"2020-074T","APOAPSIS":"548.065","ECCENTRICITY":"0.00012320","MEAN_ANOMALY":"261.7973","OBJECT_NAME":"STARLINK-1925","MEAN_ELEMENT_THEORY":"SGP4","LAUNCH_DATE":"2020-10-24","CLASSIFICATION_TYPE":"U","EPOCH":"2021-10-07T15:32:47.404032","MEAN_MOTION_DDOT":"0.0000000000000","REV_AT_EPOCH":"5333","TIME_SYSTEM":"UTC","TLE_LINE1":"1 46756U 20074T   21280.64777088  .00000882  00000-0  78067-4 0  9991","ARG_OF_PERICENTER":"98.3156","REF_FRAME":"TEME","FILE":"3150302","DECAY_DATE":null,"MEAN_MOTION_DOT":"0.00000882","ELEMENT_SET_NO":"999","PERIAPSIS":"546.359","PERIOD":"95.592","SEMIMAJOR_AXIS":"6925.347","INCLINATION":"53.0554","MEAN_MOTION":"15.06400493","CENTER_NAME":"EARTH","TLE_LINE2":"2 46756  53.0554  12.3256 0001232  98.3156 261.7973 15.06400493 53332","BSTAR":"0.00007806700000","COUNTRY_CODE":"US","EPHEMERIS_TYPE":"0","GP_ID":"186512257","SITE":"AFETR","RA_OF_ASC_NODE":"12.3256","RCS_SIZE":"LARGE","NORAD_CAT_ID":"46756","OBJECT_TYPE":"PAYLOAD"},{"SEMIMAJOR_AXIS":"6925.330","INCLINATION":"53.0558","ELEMENT_SET_NO":"999","PERIOD":"95.592","PERIAPSIS":"546.497","CENTER_NAME":"EARTH","TLE_LINE2":"2 46757  53.0558  12.2122 0001008 101.1899 258.9203 15.06406045 53339","MEAN_MOTION":"15.06406045","COUNTRY_CODE":"US","GP_ID":"186511983","EPHEMERIS_TYPE":"0","BSTAR":"0.00014763000000","RCS_SIZE":"LARGE","RA_OF_ASC_NODE":"12.2122","OBJECT_TYPE":"PAYLOAD","NORAD_CAT_ID":"46757","SITE":"AFETR","APOAPSIS":"547.893","OBJECT_ID":"2020-074U","OBJECT_NAME":"STARLINK-1926","ECCENTRICITY":"0.00010080","MEAN_ANOMALY":"258.9203","MEAN_MOTION_DDOT":"0.0000000000000","EPOCH":"2021-10-07T16:15:14.857920","REV_AT_EPOCH":"5333","TIME_SYSTEM":"UTC","MEAN_ELEMENT_THEORY":"SGP4","LAUNCH_DATE":"2020-10-24","CLASSIFICATION_TYPE":"U","FILE":"3150302","REF_FRAME":"TEME","MEAN_MOTION_DOT":"0.00001919","DECAY_DATE":null,"ARG_OF_PERICENTER":"101.1899","TLE_LINE1":"1 46757U 20074U   21280.67725530  .00001919  00000-0  14763-3 0  9994"},{"OBJECT_TYPE":"PAYLOAD","NORAD_CAT_ID":"46758","RCS_SIZE":"LARGE","RA_OF_ASC_NODE":"12.3874","SITE":"AFETR","EPHEMERIS_TYPE":"0","GP_ID":"186510756","COUNTRY_CODE":"US","BSTAR":"0.00008020000000","TLE_LINE2":"2 46758  53.0567  12.3874 0001359  99.4752 260.6391 15.06398087 53335","CENTER_NAME":"EARTH","MEAN_MOTION":"15.06398087","INCLINATION":"53.0567","SEMIMAJOR_AXIS":"6925.354","PERIOD":"95.592","PERIAPSIS":"546.278","ELEMENT_SET_NO":"999","MEAN_MOTION_DOT":"0.00000913","DECAY_DATE":null,"FILE":"3150302","REF_FRAME":"TEME","ARG_OF_PERICENTER":"99.4752","TLE_LINE1":"1 46758U 20074V   21280.63765962  .00000913  00000-0  80200-4 0  9997","REV_AT_EPOCH":"5333","TIME_SYSTEM":"UTC","MEAN_MOTION_DDOT":"0.0000000000000","EPOCH":"2021-10-07T15:18:13.791168","CLASSIFICATION_TYPE":"U","LAUNCH_DATE":"2020-10-24","MEAN_ELEMENT_THEORY":"SGP4","OBJECT_NAME":"STARLINK-1928","MEAN_ANOMALY":"260.6391","ECCENTRICITY":"0.00013590","APOAPSIS":"548.161","OBJECT_ID":"2020-074V"},{"MEAN_MOTION":"15.06401349","CENTER_NAME":"EARTH","TLE_LINE2":"2 46759  53.0560  22.0902 0001134 116.1698 243.9408 15.06401349 53199","ELEMENT_SET_NO":"999","PERIOD":"95.592","PERIAPSIS":"546.424","SEMIMAJOR_AXIS":"6925.344","INCLINATION":"53.0560","SITE":"AFETR","RCS_SIZE":"LARGE","RA_OF_ASC_NODE":"22.0902","OBJECT_TYPE":"PAYLOAD","NORAD_CAT_ID":"46759","BSTAR":"0.00006368500000","COUNTRY_CODE":"US","EPHEMERIS_TYPE":"0","GP_ID":"186511500","ECCENTRICITY":"0.00011340","MEAN_ANOMALY":"243.9408","OBJECT_NAME":"STARLINK-1833","OBJECT_ID":"2020-074W","APOAPSIS":"547.995","ARG_OF_PERICENTER":"116.1698","TLE_LINE1":"1 46759U 20074W   21280.69939624  .00000667  00000-0  63685-4 0  9996","REF_FRAME":"TEME","FILE":"3150302","MEAN_MOTION_DOT":"0.00000667","DECAY_DATE":null,"MEAN_ELEMENT_THEORY":"SGP4","LAUNCH_DATE":"2020-10-24","CLASSIFICATION_TYPE":"U","MEAN_MOTION_DDOT":"0.0000000000000","EPOCH":"2021-10-07T16:47:07.835136","TIME_SYSTEM":"UTC","REV_AT_EPOCH":"5319"},{"SEMIMAJOR_AXIS":"6925.363","INCLINATION":"53.0565","ELEMENT_SET_NO":"999","PERIOD":"95.592","PERIAPSIS":"546.276","CENTER_NAME":"EARTH","TLE_LINE2":"2 46760  53.0565  21.7665 0001374 108.2131 251.9008 15.06395415 53212","MEAN_MOTION":"15.06395415","COUNTRY_CODE":"US","GP_ID":"186511757","EPHEMERIS_TYPE":"0","BSTAR":"-0.00004422700000","RCS_SIZE":"LARGE","RA_OF_ASC_NODE":"21.7665","NORAD_CAT_ID":"46760","OBJECT_TYPE":"PAYLOAD","SITE":"AFETR","APOAPSIS":"548.179","OBJECT_ID":"2020-074X","OBJECT_NAME":"STARLINK-1896","ECCENTRICITY":"0.00013740","MEAN_ANOMALY":"251.9008","MEAN_MOTION_DDOT":"0.0000000000000","EPOCH":"2021-10-07T18:38:35.581344","TIME_SYSTEM":"UTC","REV_AT_EPOCH":"5321","MEAN_ELEMENT_THEORY":"SGP4","CLASSIFICATION_TYPE":"U","LAUNCH_DATE":"2020-10-24","FILE":"3150302","REF_FRAME":"TEME","DECAY_DATE":null,"MEAN_MOTION_DOT":"-0.00000940","ARG_OF_PERICENTER":"108.2131","TLE_LINE1":"1 46760U 20074X   21280.77680071 -.00000940  00000-0 -44227-4 0  9993"},{"INCLINATION":"53.0542","SEMIMAJOR_AXIS":"6768.146","PERIOD":"92.356","PERIAPSIS":"389.175","ELEMENT_SET_NO":"999","TLE_LINE2":"2 46762  53.0542   5.6126 0001235  53.9940 306.1187 15.59186971 53429","CENTER_NAME":"EARTH","MEAN_MOTION":"15.59186971","EPHEMERIS_TYPE":"0","GP_ID":"186512484","COUNTRY_CODE":"US","BSTAR":"0.00109010000000","NORAD_CAT_ID":"46762","OBJECT_TYPE":"PAYLOAD","RCS_SIZE":"LARGE","RA_OF_ASC_NODE":"5.6126","SITE":"AFETR","APOAPSIS":"390.847","OBJECT_ID":"2020-074Z","OBJECT_NAME":"STARLINK-1901","MEAN_ANOMALY":"306.1187","ECCENTRICITY":"0.00012350","REV_AT_EPOCH":"5342","TIME_SYSTEM":"UTC","MEAN_MOTION_DDOT":"0.0000000000000","EPOCH":"2021-10-07T14:26:42.020736","LAUNCH_DATE":"2020-10-24","CLASSIFICATION_TYPE":"U","MEAN_ELEMENT_THEORY":"SGP4","MEAN_MOTION_DOT":"0.00087440","DECAY_DATE":null,"REF_FRAME":"TEME","FILE":"3150302","ARG_OF_PERICENTER":"53.9940","TLE_LINE1":"1 46762U 20074Z   21280.60187524  .00087440  00000-0  10901-2 0  9990"},{"TLE_LINE1":"1 46763U 20074AA  21280.65515917  .00002496  00000-0  18640-3 0  9994","ARG_OF_PERICENTER":"108.5570","FILE":"3150302","REF_FRAME":"TEME","MEAN_MOTION_DOT":"0.00002496","DECAY_DATE":null,"MEAN_ELEMENT_THEORY":"SGP4","CLASSIFICATION_TYPE":"U","LAUNCH_DATE":"2020-10-24","EPOCH":"2021-10-07T15:43:25.752288","MEAN_MOTION_DDOT":"0.0000000000000","TIME_SYSTEM":"UTC","REV_AT_EPOCH":"5319","ECCENTRICITY":"0.00013080","MEAN_ANOMALY":"251.5561","OBJECT_NAME":"STARLINK-1902","OBJECT_ID":"2020-074AA","APOAPSIS":"548.105","SITE":"AFETR","RA_OF_ASC_NODE":"22.2921","RCS_SIZE":"LARGE","NORAD_CAT_ID":"46763","OBJECT_TYPE":"PAYLOAD","BSTAR":"0.00018640000000","COUNTRY_CODE":"US","EPHEMERIS_TYPE":"0","GP_ID":"186511257","MEAN_MOTION":"15.06404549","CENTER_NAME":"EARTH","TLE_LINE2":"2 46763  53.0569  22.2921 0001308 108.5570 251.5561 15.06404549 53193","ELEMENT_SET_NO":"999","PERIAPSIS":"546.294","PERIOD":"95.592","SEMIMAJOR_AXIS":"6925.335","INCLINATION":"53.0569"},{"SITE":"AFETR","NORAD_CAT_ID":"46764","OBJECT_TYPE":"PAYLOAD","RCS_SIZE":"LARGE","RA_OF_ASC_NODE":"21.7881","BSTAR":"0.00005813100000","EPHEMERIS_TYPE":"0","GP_ID":"186511000","COUNTRY_CODE":"US","MEAN_MOTION":"15.06397537","TLE_LINE2":"2 46764  53.0547  21.7881 0001340 101.5198 258.5941 15.06397537 53214","CENTER_NAME":"EARTH","PERIOD":"95.592","PERIAPSIS":"546.293","ELEMENT_SET_NO":"999","INCLINATION":"53.0547","SEMIMAJOR_AXIS":"6925.356","ARG_OF_PERICENTER":"101.5198","TLE_LINE1":"1 46764U 20074AB  21280.76942831  .00000584  00000-0  58131-4 0  9992","DECAY_DATE":null,"MEAN_MOTION_DOT":"0.00000584","REF_FRAME":"TEME","FILE":"3150302","CLASSIFICATION_TYPE":"U","LAUNCH_DATE":"2020-10-24","MEAN_ELEMENT_THEORY":"SGP4","TIME_SYSTEM":"UTC","REV_AT_EPOCH":"5321","MEAN_MOTION_DDOT":"0.0000000000000","EPOCH":"2021-10-07T18:27:58.605984","MEAN_ANOMALY":"258.5941","ECCENTRICITY":"0.00013400","OBJECT_NAME":"STARLINK-1903","OBJECT_ID":"2020-074AB","APOAPSIS":"548.149"},{"REF_FRAME":"TEME","FILE":"3149686","MEAN_MOTION_DOT":"0.00002107","DECAY_DATE":null,"ARG_OF_PERICENTER":"107.3590","TLE_LINE1":"1 46765U 20074AC  21280.55932737  .00002107  00000-0  16029-3 0  9996","MEAN_MOTION_DDOT":"0.0000000000000","EPOCH":"2021-10-07T13:25:25.884768","TIME_SYSTEM":"UTC","REV_AT_EPOCH":"5290","MEAN_ELEMENT_THEORY":"SGP4","LAUNCH_DATE":"2020-10-24","CLASSIFICATION_TYPE":"U","OBJECT_NAME":"STARLINK-1906","ECCENTRICITY":"0.00011720","MEAN_ANOMALY":"252.7527","APOAPSIS":"547.998","OBJECT_ID":"2020-074AC","RCS_SIZE":"LARGE","RA_OF_ASC_NODE":"22.7257","OBJECT_TYPE":"PAYLOAD","NORAD_CAT_ID":"46765","SITE":"AFETR","COUNTRY_CODE":"US","EPHEMERIS_TYPE":"0","GP_ID":"186475282","BSTAR":"0.00016029000000","CENTER_NAME":"EARTH","TLE_LINE2":"2 46765  53.0585  22.7257 0001172 107.3590 252.7527 15.06408927 52905","MEAN_MOTION":"15.06408927","SEMIMAJOR_AXIS":"6925.321","INCLINATION":"53.0585","ELEMENT_SET_NO":"999","PERIOD":"95.592","PERIAPSIS":"546.375"},{"BSTAR":"0.00021850000000","COUNTRY_CODE":"US","EPHEMERIS_TYPE":"0","GP_ID":"186511984","SITE":"AFETR","RA_OF_ASC_NODE":"22.1833","RCS_SIZE":"LARGE","OBJECT_TYPE":"PAYLOAD","NORAD_CAT_ID":"46766","ELEMENT_SET_NO":"999","PERIAPSIS":"546.286","PERIOD":"95.592","SEMIMAJOR_AXIS":"6925.348","INCLINATION":"53.0554","MEAN_MOTION":"15.06400316","CENTER_NAME":"EARTH","TLE_LINE2":"2 46766  53.0554  22.1833 0001338  98.2013 261.9128 15.06400316 53205","MEAN_ELEMENT_THEORY":"SGP4","CLASSIFICATION_TYPE":"U","LAUNCH_DATE":"2020-10-24","MEAN_MOTION_DDOT":"0.0000000000000","EPOCH":"2021-10-07T16:25:54.510816","TIME_SYSTEM":"UTC","REV_AT_EPOCH":"5320","TLE_LINE1":"1 46766U 20074AD  21280.68465869  .00002975  00000-0  21850-3 0  9999","ARG_OF_PERICENTER":"98.2013","FILE":"3150302","REF_FRAME":"TEME","DECAY_DATE":null,"MEAN_MOTION_DOT":"0.00002975","OBJECT_ID":"2020-074AD","APOAPSIS":"548.139","ECCENTRICITY":"0.00013380","MEAN_ANOMALY":"261.9128","OBJECT_NAME":"STARLINK-1916"}];
